stk.v.9.0
#Ephemeris file written by EMTG_v8 core program compiled Mar  9 2015 09:52:54
BEGIN Ephemeris
ScenarioEpoch 25 DEC 2027 02:51:50.731
CentralBody Sun
CoordinateSystem J2000
InterpolationMethod Lagrange
InterpolationSamplesM1 5
NumberOfEphemerisPoints 566

EphemerisTimePosVelMassControl
 3.55270866443024E+07 -3.83821618275889E+11  1.42570879199060E+11 -9.50651889704354E+09 -4.46841412526018E+03 -1.45901012826646E+04 -7.94861006244769E+03  1.15179555872376E+03  2.39031666128489E-01 -5.81207732115039E-01 -7.77856949906723E-01
 3.56134866443024E+07 -3.84204871279451E+11  1.41309150014006E+11 -1.01933682536317E+10 -4.40316759713772E+03 -1.46165597555929E+04 -7.95066172644429E+03  1.15159290612490E+03  2.39031666128489E-01 -5.81207732115039E-01 -7.77856949906723E-01
 3.56998866443024E+07 -3.84582482951829E+11  1.40045143392322E+11 -1.08803899803712E+10 -4.33782784531314E+03 -1.46428196510777E+04 -7.95260009175667E+03  1.15139019926997E+03  2.39031666128489E-01 -5.81207732115039E-01 -7.77856949906723E-01
 3.57862866443024E+07 -3.84954445261873E+11  1.38778876509811E+11 -1.15675742829407E+10 -4.27239541136060E+03 -1.46688805357322E+04 -7.95442503530692E+03  1.15118743751454E+03  2.39031666128489E-01 -5.81207732115039E-01 -7.77856949906723E-01
 3.58726866443024E+07 -3.85320750225347E+11  1.37510366579783E+11 -1.22549113563743E+10 -4.20687083982488E+03 -1.46947419746680E+04 -7.95613643378040E+03  1.15098462021621E+03  2.39031666128489E-01 -5.81207732115039E-01 -7.77856949906723E-01
 3.59590866443024E+07 -3.85681389905199E+11  1.36239630853191E+11 -1.29423913850421E+10 -4.14125467825750E+03 -1.47204035315096E+04 -7.95773416363881E+03  1.15078174673465E+03  2.39031666128489E-01 -5.81207732115039E-01 -7.77856949906723E-01
 3.60053428805008E+07 -3.85872135523353E+11  1.35558404326745E+11 -1.33105050437629E+10 -4.10608809789219E+03 -1.47340597355404E+04 -7.95854278460059E+03  1.15067311041605E+03  2.39031666128489E-01 -5.81207732115039E-01 -7.77856949906723E-01
 3.60917428805008E+07 -3.86224058120825E+11  1.34284283572992E+11 -1.39981833843195E+10 -4.04025323907140E+03 -1.47594427715756E+04 -7.95991832931112E+03  1.15047014942954E+03  2.55632658090377E-01 -5.87337893449050E-01 -7.67910243998057E-01
 3.61781428805008E+07 -3.86570288684172E+11  1.33007978403927E+11 -1.46859756475455E+10 -3.97432814102516E+03 -1.47846248314986E+04 -7.96117986282347E+03  1.15026713063899E+03  2.55632658090377E-01 -5.87337893449050E-01 -7.67910243998057E-01
 3.62645428805008E+07 -3.86910819440704E+11  1.31729506202905E+11 -1.53738719775295E+10 -3.90831335937166E+03 -1.48096054748440E+04 -7.96232726140331E+03  1.15006405340479E+03  2.55632658090377E-01 -5.87337893449050E-01 -7.67910243998057E-01
 3.63509428805008E+07 -3.87245642665873E+11  1.30448884391397E+11 -1.60618625076614E+10 -3.84220945287676E+03 -1.48343842596978E+04 -7.96336040113757E+03  1.14986091708941E+03  2.55632658090377E-01 -5.87337893449050E-01 -7.67910243998057E-01
 3.64373428805008E+07 -3.87574750683546E+11  1.29166130429121E+11 -1.67499373606180E+10 -3.77601698349038E+03 -1.48589607427127E+04 -7.96427915794818E+03  1.14965772105739E+03  2.55632658090377E-01 -5.87337893449050E-01 -7.67910243998057E-01
 3.65237428805008E+07 -3.87898135866282E+11  1.27881261814157E+11 -1.74380866483490E+10 -3.70973651638305E+03 -1.48833344791242E+04 -7.96508340760618E+03  1.14945446467539E+03  2.55632658090377E-01 -5.87337893449050E-01 -7.67910243998057E-01
 3.65699991166992E+07 -3.88068912883168E+11  1.27192514685448E+11 -1.78065304233775E+10 -3.67421576731943E+03 -1.48963000385323E+04 -7.96546687575482E+03  1.14934562165210E+03  2.55632658090377E-01 -5.87337893449050E-01 -7.67910243998057E-01
 3.66563991166992E+07 -3.88383493185763E+11  1.25904432259447E+11 -1.84947726183275E+10 -3.60772119994358E+03 -1.49203888458693E+04 -7.96604628285384E+03  1.14914227138134E+03  2.72364800708538E-01 -5.93026406063353E-01 -7.57718349287685E-01
 3.67427991166992E+07 -3.88692324612311E+11  1.24614277364107E+11 -1.91830599132751E+10 -3.54114002827759E+03 -1.49442737911884E+04 -7.96651083649442E+03  1.14893885915764E+03  2.72364800708538E-01 -5.93026406063353E-01 -7.57718349287685E-01
 3.68291991166992E+07 -3.88995399704972E+11  1.23322067632475E+11 -1.98713823795177E+10 -3.47447282626393E+03 -1.49679544258544E+04 -7.96686041249218E+03  1.14873538434848E+03  2.72364800708538E-01 -5.93026406063353E-01 -7.57718349287685E-01
 3.69155991166992E+07 -3.89292711055639E+11  1.22027820736425E+11 -2.05597300776183E+10 -3.40772017120769E+03 -1.49914302998607E+04 -7.96709488656073E+03  1.14853184632345E+03  2.72364800708538E-01 -5.93026406063353E-01 -7.57718349287685E-01
 3.70019991166992E+07 -3.89584251306230E+11  1.20731554386764E+11 -2.12480930573979E+10 -3.34088264381328E+03 -1.50147009618467E+04 -7.96721413432639E+03  1.14832824445431E+03  2.72364800708538E-01 -5.93026406063353E-01 -7.57718349287685E-01
 3.70883991166992E+07 -3.89870013148986E+11  1.19433286333360E+11 -2.19364613579284E+10 -3.27396082822117E+03 -1.50377659591153E+04 -7.96721803134318E+03  1.14812457811497E+03  2.72364800708538E-01 -5.93026406063353E-01 -7.57718349287685E-01
 3.71346553528976E+07 -3.90020624912712E+11  1.18737412015236E+11 -2.23049939554245E+10 -3.23809824969308E+03 -1.50500296527149E+04 -7.96717266544592E+03  1.14801551392069E+03  2.72364800708538E-01 -5.93026406063353E-01 -7.57718349287685E-01
 3.72210553528976E+07 -3.90297497137010E+11  1.17436104087388E+11 -2.29933487963903E+10 -3.17096715906006E+03 -1.50728046188405E+04 -7.96694789867610E+03  1.14781174738079E+03  2.89214033595195E-01 -5.98564404518904E-01 -7.47044775240827E-01
 3.73074553528976E+07 -3.90568565651752E+11  1.16132837332926E+11 -2.36816792201455E+10 -3.10375321973656E+03 -1.50953727854255E+04 -7.96660743155272E+03  1.14760791478629E+03  2.89214033595195E-01 -5.98564404518904E-01 -7.47044775240827E-01
 3.73938553528976E+07 -3.90833823324431E+11  1.14827629639034E+11 -2.43699752248175E+10 -3.03645702532547E+03 -1.51177336961514E+04 -7.96615113994680E+03  1.14740401551205E+03  2.89214033595195E-01 -5.98564404518904E-01 -7.47044775240827E-01
 3.74802553528976E+07 -3.91093263073977E+11  1.13520498932378E+11 -2.50582267978078E+10 -2.96907917300894E+03 -1.51398868934164E+04 -7.96557889971002E+03  1.14720004893509E+03  2.89214033595195E-01 -5.98564404518904E-01 -7.47044775240827E-01
 3.75666553528976E+07 -3.91346877871078E+11  1.12211463179214E+11 -2.57464239157912E+10 -2.90162026358530E+03 -1.51618319183550E+04 -7.96489058669058E+03  1.14699601443468E+03  2.89214033595195E-01 -5.98564404518904E-01 -7.47044775240827E-01
 3.76530553528976E+07 -3.91594660738485E+11  1.10900540385499E+11 -2.64345565447165E+10 -2.83408090150591E+03 -1.51835683108575E+04 -7.96408607674921E+03  1.14679191139232E+03  2.89214033595195E-01 -5.98564404518904E-01 -7.47044775240827E-01
 3.76993115890961E+07 -3.91724917698213E+11  1.10197938275347E+11 -2.68029342528408E+10 -2.79788928872241E+03 -1.51951194829248E+04 -7.96360756386612E+03  1.14668261172816E+03  2.89214033595195E-01 -5.98564404518904E-01 -7.47044775240827E-01
 3.77857115890961E+07 -3.91963729384511E+11  1.08884152263223E+11 -2.74909460475289E+10 -2.73014579360426E+03 -1.52165588348018E+04 -7.96257197294552E+03  1.14647840224851E+03  3.06150917860492E-01 -6.03572662766251E-01 -7.36187242523619E-01
 3.78721115890961E+07 -3.92196684617194E+11  1.07568522950547E+11 -2.81788633331947E+10 -2.66232333494873E+03 -1.52377884000512E+04 -7.96141983442129E+03  1.14627412266204E+03  3.06150917860492E-01 -6.03572662766251E-01 -7.36187242523619E-01
 3.79585115890961E+07 -3.92423776600338E+11  1.06251068482895E+11 -2.88666760347878E+10 -2.59442252739256E+03 -1.52588077152373E+04 -7.96015102475146E+03  1.14606977235137E+03  3.06150917860492E-01 -6.03572662766251E-01 -7.36187242523619E-01
 3.80449115890961E+07 -3.92644998591286E+11  1.04931807045936E+11 -2.95543740665867E+10 -2.52644398936943E+03 -1.52796163157420E+04 -7.95876542046392E+03  1.14586535070142E+03  3.06150917860492E-01 -6.03572662766251E-01 -7.36187242523619E-01
 3.81313115890961E+07 -3.92860343900981E+11  1.03610756865531E+11 -3.02419473322054E+10 -2.45838834314697E+03 -1.53002137357856E+04 -7.95726289817330E+03  1.14566085709941E+03  3.06150917860492E-01 -6.03572662766251E-01 -7.36187242523619E-01
 3.82177115890961E+07 -3.93069805894295E+11  1.02287936207836E+11 -3.09293857246019E+10 -2.39025621486375E+03 -1.53205995084486E+04 -7.95564333459803E+03  1.14545629093491E+03  3.06150917860492E-01 -6.03572662766251E-01 -7.36187242523619E-01
 3.82639678252945E+07 -3.93179525888254E+11  1.01579012299222E+11 -3.12973628040294E+10 -2.35374889050703E+03 -1.53314263535088E+04 -7.95472811721514E+03  1.14534674167800E+03  3.06150917860492E-01 -6.03572662766251E-01 -7.36187242523619E-01
 3.83503678252945E+07 -3.93379938437188E+11  1.00253507976997E+11 -3.19845720805121E+10 -2.28541794012766E+03 -1.53515086376363E+04 -7.95287446845240E+03  1.14514206291908E+03  3.23179747186152E-01 -6.08185443016995E-01 -7.25027804784765E-01
 3.84367678252945E+07 -3.93574443950036E+11  9.89262777358263E+10 -3.26716161312866E+10 -2.21701204989552E+03 -1.53713781027069E+04 -7.95090342763401E+03  1.14493731005353E+03  3.23179747186152E-01 -6.08185443016995E-01 -7.25027804784765E-01
 3.85231678252945E+07 -3.93763035979485E+11  9.75973399835700E+10 -3.33584848083915E+10 -2.14853185684767E+03 -1.53910342788113E+04 -7.94881487238432E+03  1.14473248247228E+03  3.23179747186152E-01 -6.08185443016995E-01 -7.25027804784765E-01
 3.86095678252945E+07 -3.93945708133437E+11  9.62667131687331E+10 -3.40451679532992E+10 -2.07997800203641E+03 -1.54104766949702E+04 -7.94660868049337E+03  1.14452757956863E+03  3.23179747186152E-01 -6.08185443016995E-01 -7.25027804784765E-01
 3.86959678252945E+07 -3.94122454075354E+11  9.49344157805590E+10 -3.47316553969310E+10 -2.01135113056632E+03 -1.54297048791582E+04 -7.94428472993486E+03  1.14432260073831E+03  3.23179747186152E-01 -6.08185443016995E-01 -7.25027804784765E-01
END Ephemeris
